NESS                    
1 58020U 23155E   26068.76452457  .00019469  00000+0  74047-3 0  9996
2 58020  97.5941 152.6141 0006891 179.8776 180.2465 15.26794015133307
STARLINK-33665          
1 63281U 25053S   26068.52171899  .00020704  00000+0  75892-3 0  9995
2 63281  43.0015 242.2115 0001663 260.9739  99.0924 15.27616660 56176
